[
  {
    "OBJECT_NAME": "STARLINK-5689",
    "OBJECT_ID": "23015AB",
    "EPOCH": "2025-11-11T05:46:19.770240",
    "MEAN_MOTION": 15.02519622,
    "ECCENTRICITY": 0.0001101,
    "INCLINATION": 43.0033,
    "RA_OF_ASC_NODE": 262.8197,
    "ARG_OF_PERICENTER": 280.797,
    "MEAN_ANOMALY": 79.2748,
    "EPHEMERIS_TYPE": 0,
    "CLASSIFICATION_TYPE": "U",
    "NORAD_CAT_ID": 55474,
    "ELEMENT_SET_NO": 999,
    "REV_AT_EPOCH": 15278,
    "BSTAR": 0.00034588999999999996,
    "MEAN_MOTION_DOT": 4.47e-05,
    "MEAN_MOTION_DDOT": 0.0,
    "TLE_LINE1": "1 55474U 23015AB  25315.24050660  .00004470  00000+0  34589-3 0  9991",
    "TLE_LINE2": "2 55474  43.0033 262.8197 0001101 280.7970  79.2748 15.02519622152784",
    "COMMENT": "Grouped by shell and plane from TLE"
  },
  {
    "OBJECT_NAME": "STARLINK-5690",
    "OBJECT_ID": "23015AH",
    "EPOCH": "2025-11-11T07:02:51.464544",
    "MEAN_MOTION": 15.02535428,
    "ECCENTRICITY": 0.0001606,
    "INCLINATION": 43.0041,
    "RA_OF_ASC_NODE": 262.2685,
    "ARG_OF_PERICENTER": 261.9641,
    "MEAN_ANOMALY": 98.102,
    "EPHEMERIS_TYPE": 0,
    "CLASSIFICATION_TYPE": "U",
    "NORAD_CAT_ID": 55480,
    "ELEMENT_SET_NO": 999,
    "REV_AT_EPOCH": 15279,
    "BSTAR": 7.8848e-05,
    "MEAN_MOTION_DOT": 8.62e-06,
    "MEAN_MOTION_DDOT": 0.0,
    "TLE_LINE1": "1 55480U 23015AH  25315.29365121  .00000862  00000+0  78848-4 0  9992",
    "TLE_LINE2": "2 55480  43.0041 262.2685 0001606 261.9641  98.1020 15.02535428152798",
    "COMMENT": "Grouped by shell and plane from TLE"
  },
  {
    "OBJECT_NAME": "STARLINK-5694",
    "OBJECT_ID": "23015AJ",
    "EPOCH": "2025-11-11T05:39:55.410336",
    "MEAN_MOTION": 15.02539366,
    "ECCENTRICITY": 0.0001129,
    "INCLINATION": 43.0018,
    "RA_OF_ASC_NODE": 262.7872,
    "ARG_OF_PERICENTER": 268.5855,
    "MEAN_ANOMALY": 91.4858,
    "EPHEMERIS_TYPE": 0,
    "CLASSIFICATION_TYPE": "U",
    "NORAD_CAT_ID": 55481,
    "ELEMENT_SET_NO": 999,
    "REV_AT_EPOCH": 15278,
    "BSTAR": 0.00015204000000000001,
    "MEAN_MOTION_DOT": 1.851e-05,
    "MEAN_MOTION_DDOT": 0.0,
    "TLE_LINE1": "1 55481U 23015AJ  25315.23605799  .00001851  00000+0  15204-3 0  9990",
    "TLE_LINE2": "2 55481  43.0018 262.7872 0001129 268.5855  91.4858 15.02539366152785",
    "COMMENT": "Grouped by shell and plane from TLE"
  },
  {
    "OBJECT_NAME": "STARLINK-5692",
    "OBJECT_ID": "23015AL",
    "EPOCH": "2025-11-11T07:01:15.770496",
    "MEAN_MOTION": 15.02543903,
    "ECCENTRICITY": 7.93e-05,
    "INCLINATION": 43.0023,
    "RA_OF_ASC_NODE": 262.3451,
    "ARG_OF_PERICENTER": 244.6156,
    "MEAN_ANOMALY": 115.4604,
    "EPHEMERIS_TYPE": 0,
    "CLASSIFICATION_TYPE": "U",
    "NORAD_CAT_ID": 55483,
    "ELEMENT_SET_NO": 999,
    "REV_AT_EPOCH": 15279,
    "BSTAR": 0.00010145,
    "MEAN_MOTION_DOT": 1.167e-05,
    "MEAN_MOTION_DDOT": 0.0,
    "TLE_LINE1": "1 55483U 23015AL  25315.29254364  .00001167  00000+0  10145-3 0  9995",
    "TLE_LINE2": "2 55483  43.0023 262.3451 0000793 244.6156 115.4604 15.02543903152796",
    "COMMENT": "Grouped by shell and plane from TLE"
  },
  {
    "OBJECT_NAME": "STARLINK-5696",
    "OBJECT_ID": "23015AM",
    "EPOCH": "2025-11-11T06:48:29.438784",
    "MEAN_MOTION": 15.02536083,
    "ECCENTRICITY": 9.46e-05,
    "INCLINATION": 43.0033,
    "RA_OF_ASC_NODE": 262.2813,
    "ARG_OF_PERICENTER": 277.7182,
    "MEAN_ANOMALY": 82.3553,
    "EPHEMERIS_TYPE": 0,
    "CLASSIFICATION_TYPE": "U",
    "NORAD_CAT_ID": 55484,
    "ELEMENT_SET_NO": 999,
    "REV_AT_EPOCH": 15279,
    "BSTAR": 7.5763e-05,
    "MEAN_MOTION_DOT": 8.2e-06,
    "MEAN_MOTION_DDOT": 0.0,
    "TLE_LINE1": "1 55484U 23015AM  25315.28367406  .00000820  00000+0  75763-4 0  9990",
    "TLE_LINE2": "2 55484  43.0033 262.2813 0000946 277.7182  82.3553 15.02536083152791",
    "COMMENT": "Grouped by shell and plane from TLE"
  },
  {
    "OBJECT_NAME": "STARLINK-5695",
    "OBJECT_ID": "23015AN",
    "EPOCH": "2025-11-11T05:35:08.196000",
    "MEAN_MOTION": 15.02537737,
    "ECCENTRICITY": 0.0001293,
    "INCLINATION": 43.005,
    "RA_OF_ASC_NODE": 262.7574,
    "ARG_OF_PERICENTER": 270.3358,
    "MEAN_ANOMALY": 89.7336,
    "EPHEMERIS_TYPE": 0,
    "CLASSIFICATION_TYPE": "U",
    "NORAD_CAT_ID": 55485,
    "ELEMENT_SET_NO": 999,
    "REV_AT_EPOCH": 15278,
    "BSTAR": 8.7988e-05,
    "MEAN_MOTION_DOT": 9.85e-06,
    "MEAN_MOTION_DDOT": 0.0,
    "TLE_LINE1": "1 55485U 23015AN  25315.23273375  .00000985  00000+0  87988-4 0  9991",
    "TLE_LINE2": "2 55485  43.0050 262.7574 0001293 270.3358  89.7336 15.02537737152786",
    "COMMENT": "Grouped by shell and plane from TLE"
  },
  {
    "OBJECT_NAME": "STARLINK-5704",
    "OBJECT_ID": "23015AP",
    "EPOCH": "2025-11-11T05:15:56.743200",
    "MEAN_MOTION": 15.02538638,
    "ECCENTRICITY": 0.000135,
    "INCLINATION": 43.005,
    "RA_OF_ASC_NODE": 262.6118,
    "ARG_OF_PERICENTER": 265.3331,
    "MEAN_ANOMALY": 94.7357,
    "EPHEMERIS_TYPE": 0,
    "CLASSIFICATION_TYPE": "U",
    "NORAD_CAT_ID": 55486,
    "ELEMENT_SET_NO": 999,
    "REV_AT_EPOCH": 15278,
    "BSTAR": 4.6500000000000005e-05,
    "MEAN_MOTION_DOT": 4.25e-06,
    "MEAN_MOTION_DDOT": 0.0,
    "TLE_LINE1": "1 55486U 23015AP  25315.21940675  .00000425  00000+0  46500-4 0  9998",
    "TLE_LINE2": "2 55486  43.0050 262.6118 0001350 265.3331  94.7357 15.02538638152789",
    "COMMENT": "Grouped by shell and plane from TLE"
  },
  {
    "OBJECT_NAME": "STARLINK-5701",
    "OBJECT_ID": "23015AQ",
    "EPOCH": "2025-11-11T05:36:42.951744",
    "MEAN_MOTION": 15.02585976,
    "ECCENTRICITY": 0.0001333,
    "INCLINATION": 43.0037,
    "RA_OF_ASC_NODE": 262.768,
    "ARG_OF_PERICENTER": 270.3495,
    "MEAN_ANOMALY": 89.7195,
    "EPHEMERIS_TYPE": 0,
    "CLASSIFICATION_TYPE": "U",
    "NORAD_CAT_ID": 55487,
    "ELEMENT_SET_NO": 999,
    "REV_AT_EPOCH": 15278,
    "BSTAR": 0.0,
    "MEAN_MOTION_DOT": -9.291e-05,
    "MEAN_MOTION_DDOT": 0.0,
    "TLE_LINE1": "1 55487U 23015AQ  25315.23383046 -.00009291  00000+0 -67273-3 0  9995",
    "TLE_LINE2": "2 55487  43.0037 262.7680 0001333 270.3495  89.7195 15.02585976152789",
    "COMMENT": "Grouped by shell and plane from TLE"
  },
  {
    "OBJECT_NAME": "STARLINK-5706",
    "OBJECT_ID": "23015AR",
    "EPOCH": "2025-11-11T05:01:35.533920",
    "MEAN_MOTION": 15.02524164,
    "ECCENTRICITY": 7.65e-05,
    "INCLINATION": 43.0032,
    "RA_OF_ASC_NODE": 262.5781,
    "ARG_OF_PERICENTER": 272.1185,
    "MEAN_ANOMALY": 87.9569,
    "EPHEMERIS_TYPE": 0,
    "CLASSIFICATION_TYPE": "U",
    "NORAD_CAT_ID": 55488,
    "ELEMENT_SET_NO": 999,
    "REV_AT_EPOCH": 15278,
    "BSTAR": 0.00019949,
    "MEAN_MOTION_DOT": 2.491e-05,
    "MEAN_MOTION_DDOT": 0.0,
    "TLE_LINE1": "1 55488U 23015AR  25315.20943905  .00002491  00000+0  19949-3 0  9999",
    "TLE_LINE2": "2 55488  43.0032 262.5781 0000765 272.1185  87.9569 15.02524164152786",
    "COMMENT": "Grouped by shell and plane from TLE"
  },
  {
    "OBJECT_NAME": "STARLINK-5371",
    "OBJECT_ID": "23015AS",
    "EPOCH": "2025-11-11T05:20:45.085920",
    "MEAN_MOTION": 15.02538358,
    "ECCENTRICITY": 0.0001363,
    "INCLINATION": 43.0047,
    "RA_OF_ASC_NODE": 262.6831,
    "ARG_OF_PERICENTER": 267.2412,
    "MEAN_ANOMALY": 92.8275,
    "EPHEMERIS_TYPE": 0,
    "CLASSIFICATION_TYPE": "U",
    "NORAD_CAT_ID": 55489,
    "ELEMENT_SET_NO": 999,
    "REV_AT_EPOCH": 15278,
    "BSTAR": 5.4513000000000005e-05,
    "MEAN_MOTION_DOT": 5.33e-06,
    "MEAN_MOTION_DDOT": 0.0,
    "TLE_LINE1": "1 55489U 23015AS  25315.22274405  .00000533  00000+0  54513-4 0  9996",
    "TLE_LINE2": "2 55489  43.0047 262.6831 0001363 267.2412  92.8275 15.02538358152782",
    "COMMENT": "Grouped by shell and plane from TLE"
  },
  {
    "OBJECT_NAME": "STARLINK-5373",
    "OBJECT_ID": "23015AT",
    "EPOCH": "2025-11-11T05:17:31.839360",
    "MEAN_MOTION": 15.02619527,
    "ECCENTRICITY": 0.0001127,
    "INCLINATION": 43.0026,
    "RA_OF_ASC_NODE": 262.657,
    "ARG_OF_PERICENTER": 267.5522,
    "MEAN_ANOMALY": 92.5192,
    "EPHEMERIS_TYPE": 0,
    "CLASSIFICATION_TYPE": "U",
    "NORAD_CAT_ID": 55490,
    "ELEMENT_SET_NO": 999,
    "REV_AT_EPOCH": 15278,
    "BSTAR": 0.0,
    "MEAN_MOTION_DOT": -0.00020959,
    "MEAN_MOTION_DDOT": 0.0,
    "TLE_LINE1": "1 55490U 23015AT  25315.22050740 -.00020959  00000+0 -15377-2 0  9991",
    "TLE_LINE2": "2 55490  43.0026 262.6570 0001127 267.5522  92.5192 15.02619527152787",
    "COMMENT": "Grouped by shell and plane from TLE"
  },
  {
    "OBJECT_NAME": "STARLINK-5013",
    "OBJECT_ID": "23015AV",
    "EPOCH": "2025-11-11T05:06:21.588768",
    "MEAN_MOTION": 15.02541419,
    "ECCENTRICITY": 0.0001141,
    "INCLINATION": 43.0046,
    "RA_OF_ASC_NODE": 262.6048,
    "ARG_OF_PERICENTER": 271.112,
    "MEAN_ANOMALY": 88.9592,
    "EPHEMERIS_TYPE": 0,
    "CLASSIFICATION_TYPE": "U",
    "NORAD_CAT_ID": 55492,
    "ELEMENT_SET_NO": 999,
    "REV_AT_EPOCH": 15278,
    "BSTAR": 0.00015685,
    "MEAN_MOTION_DOT": 1.916e-05,
    "MEAN_MOTION_DDOT": 0.0,
    "TLE_LINE1": "1 55492U 23015AV  25315.21274987  .00001916  00000+0  15685-3 0  9996",
    "TLE_LINE2": "2 55492  43.0046 262.6048 0001141 271.1120  88.9592 15.02541419152789",
    "COMMENT": "Grouped by shell and plane from TLE"
  },
  {
    "OBJECT_NAME": "STARLINK-5362",
    "OBJECT_ID": "23015AW",
    "EPOCH": "2025-11-11T06:46:52.769280",
    "MEAN_MOTION": 15.02542656,
    "ECCENTRICITY": 0.0001264,
    "INCLINATION": 43.0041,
    "RA_OF_ASC_NODE": 262.2672,
    "ARG_OF_PERICENTER": 269.2128,
    "MEAN_ANOMALY": 90.857,
    "EPHEMERIS_TYPE": 0,
    "CLASSIFICATION_TYPE": "U",
    "NORAD_CAT_ID": 55493,
    "ELEMENT_SET_NO": 999,
    "REV_AT_EPOCH": 15279,
    "BSTAR": 0.0001004,
    "MEAN_MOTION_DOT": 1.153e-05,
    "MEAN_MOTION_DDOT": 0.0,
    "TLE_LINE1": "1 55493U 23015AW  25315.28255520  .00001153  00000+0  10040-3 0  9999",
    "TLE_LINE2": "2 55493  43.0041 262.2672 0001264 269.2128  90.8570 15.02542656152799",
    "COMMENT": "Grouped by shell and plane from TLE"
  }
]